QIANFAN-1               
1 60379U 24140A   25250.92712550  .00000102  00000+0  13863-3 0  9997
2 60379  88.9804 309.2051 0019500 128.5876 231.7026 13.50963113 54413
QIANFAN-2               
1 60380U 24140B   25250.88168837  .00000091  00000+0  12157-3 0  9999
2 60380  88.9790 309.0624 0015055 103.9645 256.3181 13.50963491 54464
QIANFAN-3               
1 60381U 24140C   25250.88996936  .00000093  00000+0  12520-3 0  9995
2 60381  88.9783 309.2012 0016126 114.8427 245.4403 13.50963569 54371
QIANFAN-4               
1 60382U 24140D   25250.86539260  .00000108  00000+0  14879-3 0  9993
2 60382  88.9807 309.0774 0015280 106.2588 254.0246 13.50963198 54497
QIANFAN-5               
1 60383U 24140E   25250.91473177  .00000094  00000+0  12737-3 0  9999
2 60383  88.9782 309.2244 0017246 124.7595 235.5182 13.50966526 54368
QIANFAN-6               
1 60384U 24140F   25250.86123372  .00000111  00000+0  15307-3 0  9999
2 60384  88.9808 308.9506 0015365 111.3079 248.9714 13.50962701 54555
QIANFAN-7               
1 60385U 24140G   25250.92740133  .00000622  00000+0  24697-3 0  9996
2 60385  88.9807 304.9882 0014650   6.1784 353.9588 14.27541848 56725
QIANFAN-8               
1 60386U 24140H   25250.86946177  .00000107  00000+0  14665-3 0  9998
2 60386  88.9811 309.1856 0018799 113.5302 246.7827 13.50966625 54403
